{"type":"FeatureCollection","features":[{"type":"Feature","properties":{"PROPERTY_NAME":"The Legends Apartments & Homes","PROPERTY_TYPE":"Apartment Complex","SOURCE_ADDRESS":"4422 Nicklaus Dr, Champaign, IL 61822, USA","VERIFIED_ADDRESS":"4422 Nicklaus Dr, Champaign, IL 61822, USA","CITY":"Champaign","UNIT_COUNT":324,"COUNT_BASIS":"Apartments","SIZE_CLASS":"250+ units/sites","COUNT_STATUS":"Verified","CONFIDENCE":"High","PHONE":"(855) 389-0178","WEBSITE":"http://www.thelegendschampaign.com/","NOTES":"Current commercial listing identifies 324 units."},"geometry":{"type":"Point","coordinates":[-88.31737,40.0764301]}},{"type":"Feature","properties":{"PROPERTY_NAME":"Windsor West Apartments","PROPERTY_TYPE":"Apartment Complex","SOURCE_ADDRESS":"2502 Fields S Dr, Champaign, IL 61822, USA","VERIFIED_ADDRESS":"2502 Fields S Dr, Champaign, IL 61822, USA","CITY":"Champaign","UNIT_COUNT":316,"COUNT_BASIS":"Apartments","SIZE_CLASS":"250+ units/sites","COUNT_STATUS":"Verified","CONFIDENCE":"High","PHONE":"(833) 847-8993","WEBSITE":"http://www.windsorwest.com/","NOTES":"Current commercial listing identifies 316 units."},"geometry":{"type":"Point","coordinates":[-88.3084231,40.0818831]}},{"type":"Feature","properties":{"PROPERTY_NAME":"Copper View Apartments","PROPERTY_TYPE":"Apartment Complex","SOURCE_ADDRESS":"2002 W Bradley Ave, Champaign, IL 61821, USA","VERIFIED_ADDRESS":"2002 W Bradley Ave, Champaign, IL 61821, USA","CITY":"Champaign","UNIT_COUNT":159,"COUNT_BASIS":"Apartments","SIZE_CLASS":"Count needs verification","COUNT_STATUS":"Best available","CONFIDENCE":"Medium","PHONE":"(217) 863-9518","WEBSITE":"https://www.rentcopperview.com/","NOTES":"Current apartment-industry profile reports 159 units."},"geometry":{"type":"Point","coordinates":[-88.28109,40.12814]}},{"type":"Feature","properties":{"PROPERTY_NAME":"Hunters Pond Apartment Homes","PROPERTY_TYPE":"Apartment Complex","SOURCE_ADDRESS":"2717 Hunters Pond Run, Champaign, IL 61820, USA","VERIFIED_ADDRESS":"2717 Hunters Pond Run, Champaign, IL 61820, USA","CITY":"Champaign","UNIT_COUNT":570,"COUNT_BASIS":"Apartments","SIZE_CLASS":"250+ units/sites","COUNT_STATUS":"Verified","CONFIDENCE":"High","PHONE":"(844) 564-8300","WEBSITE":"https://www.hunterspond-apartments.com/?utm_source=GMB&utm_medium=organic","NOTES":"Commercial property materials identify the community as 570 units."},"geometry":{"type":"Point","coordinates":[-88.2446949,40.1483293]}},{"type":"Feature","properties":{"PROPERTY_NAME":"Baytowne Apartments","PROPERTY_TYPE":"Apartment Complex","SOURCE_ADDRESS":"1000 Baytowne Dr, Champaign, IL 61822, USA","VERIFIED_ADDRESS":"1000 Baytowne Dr, Champaign, IL 61822, USA","CITY":"Champaign","UNIT_COUNT":354,"COUNT_BASIS":"Apartments","SIZE_CLASS":"250+ units/sites","COUNT_STATUS":"Verified","CONFIDENCE":"High","PHONE":"(217) 352-1000","WEBSITE":"http://www.baytowne.net/","NOTES":"Field survey reports 354 units; city inventory supports the complex footprint."},"geometry":{"type":"Point","coordinates":[-88.2625723,40.1407631]}},{"type":"Feature","properties":{"PROPERTY_NAME":"Stonegate Village Apartments by Royse + Brinkmeyer","PROPERTY_TYPE":"Apartment Complex","SOURCE_ADDRESS":"2503 W Springfield Ave B Building, Champaign, IL 61821, USA","VERIFIED_ADDRESS":"2503 W Springfield Ave B Building, Champaign, IL 61821, USA","CITY":"Champaign","UNIT_COUNT":194,"COUNT_BASIS":"Apartments","SIZE_CLASS":"150–249 units/sites","COUNT_STATUS":"Verified","CONFIDENCE":"High","PHONE":"(217) 352-1129","WEBSITE":"https://www.roysebrinkmeyer.com/stonegate-village","NOTES":"Field survey reports 194 units. The city inventory totals near this figure."},"geometry":{"type":"Point","coordinates":[-88.2871697,40.1118555]}},{"type":"Feature","properties":{"PROPERTY_NAME":"The Landing at Legends","PROPERTY_TYPE":"Apartment Complex","SOURCE_ADDRESS":"4503 Legends Dr, Champaign, IL 61822, USA","VERIFIED_ADDRESS":"4503 Legends Dr, Champaign, IL 61822, USA","CITY":"Champaign","UNIT_COUNT":214,"COUNT_BASIS":"Apartments","SIZE_CLASS":"150–249 units/sites","COUNT_STATUS":"Verified","CONFIDENCE":"High","PHONE":"(855) 389-7891","WEBSITE":"https://thelandingatlegends.com/","NOTES":"Developer/architect source lists two 107-unit buildings."},"geometry":{"type":"Point","coordinates":[-88.3181843,40.0702285]}},{"type":"Feature","properties":{"PROPERTY_NAME":"Gentry Square Apartments","PROPERTY_TYPE":"Apartment Complex","SOURCE_ADDRESS":"1712 Gentry Square Ln, Champaign, IL 61821, USA","VERIFIED_ADDRESS":"1712 Gentry Square Ln, Champaign, IL 61821, USA","CITY":"Champaign","UNIT_COUNT":144,"COUNT_BASIS":"Apartments","SIZE_CLASS":"75–149 units/sites","COUNT_STATUS":"Verified","CONFIDENCE":"High","PHONE":"(844) 914-0476","WEBSITE":"http://www.gentrysquareapartments.com/","NOTES":"Property listing and field survey both report 144 units."},"geometry":{"type":"Point","coordinates":[-88.27505,40.092248]}},{"type":"Feature","properties":{"PROPERTY_NAME":"Latitude Apartments","PROPERTY_TYPE":"Apartment Complex","SOURCE_ADDRESS":"608 E University Ave, Champaign, IL 61820, USA","VERIFIED_ADDRESS":"608 E University Ave, Champaign, IL 61820, USA","CITY":"Champaign","UNIT_COUNT":324,"COUNT_BASIS":"Apartments","SIZE_CLASS":"250+ units/sites","COUNT_STATUS":"Verified","CONFIDENCE":"High","PHONE":"(217) 305-7098","WEBSITE":"https://www.livelatitude.com/","NOTES":"Broker brochure lists 324 apartments and 519 beds."},"geometry":{"type":"Point","coordinates":[-88.2297642,40.1166544]}},{"type":"Feature","properties":{"PROPERTY_NAME":"Nantucket Cove Apartments","PROPERTY_TYPE":"Apartment Complex","SOURCE_ADDRESS":"2001 Moreland Blvd, Champaign, IL 61822, USA","VERIFIED_ADDRESS":"2001 Moreland Blvd, Champaign, IL 61822, USA","CITY":"Champaign","UNIT_COUNT":84,"COUNT_BASIS":"Apartments","SIZE_CLASS":"75–149 units/sites","COUNT_STATUS":"Verified","CONFIDENCE":"High","PHONE":"(217) 302-7316","WEBSITE":"https://www.liveatnantucketcove.com/?switch_cls[id]=72365","NOTES":"City inventory lists four buildings totaling 84 units."},"geometry":{"type":"Point","coordinates":[-88.2519554,40.1401828]}},{"type":"Feature","properties":{"PROPERTY_NAME":"Watersedge Apartments","PROPERTY_TYPE":"Apartment Complex","SOURCE_ADDRESS":"936 Waterview Way, Champaign, IL 61822, USA","VERIFIED_ADDRESS":"936 Waterview Way, Champaign, IL 61822, USA","CITY":"Champaign","UNIT_COUNT":200,"COUNT_BASIS":"Apartments","SIZE_CLASS":"150–249 units/sites","COUNT_STATUS":"Verified","CONFIDENCE":"High","PHONE":"(217) 751-4008","WEBSITE":"https://www.watersedgeapartments.net/","NOTES":"Current verified property listing reports 200 units."},"geometry":{"type":"Point","coordinates":[-88.258967,40.149521]}},{"type":"Feature","properties":{"PROPERTY_NAME":"HERE Champaign","PROPERTY_TYPE":"Apartment Complex","SOURCE_ADDRESS":"308 E Green St, Champaign, IL 61820, USA","VERIFIED_ADDRESS":"308 E Green St, Champaign, IL 61820, USA","CITY":"Champaign","UNIT_COUNT":143,"COUNT_BASIS":"Apartments","SIZE_CLASS":"75–149 units/sites","COUNT_STATUS":"Verified","CONFIDENCE":"High","PHONE":"(855) 998-6093","WEBSITE":"https://www.herechampaign.com/?utm_perq=gbp","NOTES":"Development materials report 143 units and 528 beds."},"geometry":{"type":"Point","coordinates":[-88.2342474,40.1105109]}},{"type":"Feature","properties":{"PROPERTY_NAME":"West Quad","PROPERTY_TYPE":"Apartment Complex","SOURCE_ADDRESS":"29 E Green St, Champaign, IL 61820, USA","VERIFIED_ADDRESS":"29 E Green St, Champaign, IL 61820, USA","CITY":"Champaign","UNIT_COUNT":136,"COUNT_BASIS":"Apartments","SIZE_CLASS":"75–149 units/sites","COUNT_STATUS":"Verified","CONFIDENCE":"High","PHONE":"(217) 302-7352","WEBSITE":"https://www.westquad.com/?switch_cls[id]=65688&utm_source=a53_gbp_website&utm_medium=organic","NOTES":"Current verified property listing reports 136 units."},"geometry":{"type":"Point","coordinates":[-88.2414537,40.1100757]}},{"type":"Feature","properties":{"PROPERTY_NAME":"Victoria Point Champaign IL Apartments","PROPERTY_TYPE":"Apartment Complex","SOURCE_ADDRESS":"2302 W John St, Champaign, IL 61821, USA","VERIFIED_ADDRESS":"2302 W John St, Champaign, IL 61821, USA","CITY":"Champaign","UNIT_COUNT":83,"COUNT_BASIS":"Apartments","SIZE_CLASS":"Count needs verification","COUNT_STATUS":"Best available","CONFIDENCE":"Medium","PHONE":"(217) 863-1436","WEBSITE":"http://champaignilapartments.com/","NOTES":"Combined total for Victoria Point (60) and The Refinery at Victoria Point (23)."},"geometry":{"type":"Point","coordinates":[-88.2843581,40.1094937]}},{"type":"Feature","properties":{"PROPERTY_NAME":"Legacy202 Apartments","PROPERTY_TYPE":"Apartment Complex","SOURCE_ADDRESS":"202 E Daniel St, Champaign, IL 61820, USA","VERIFIED_ADDRESS":"202 E Daniel St, Champaign, IL 61820, USA","CITY":"Champaign","UNIT_COUNT":113,"COUNT_BASIS":"Apartments","SIZE_CLASS":"Count needs verification","COUNT_STATUS":"Best available","CONFIDENCE":"Medium","PHONE":"(217) 552-1064","WEBSITE":"https://legacy202.com/?utm_source=google&utm_medium=organic&utm_campaign=gmb","NOTES":"Current student-housing directory reports 113 units."},"geometry":{"type":"Point","coordinates":[-88.236608,40.108248]}},{"type":"Feature","properties":{"PROPERTY_NAME":"Pacifica on Green","PROPERTY_TYPE":"Apartment Complex","SOURCE_ADDRESS":"28 E Green St, Champaign, IL 61820, USA","VERIFIED_ADDRESS":"28 E Green St, Champaign, IL 61820, USA","CITY":"Champaign","UNIT_COUNT":153,"COUNT_BASIS":"Apartments","SIZE_CLASS":"150–249 units/sites","COUNT_STATUS":"Verified","CONFIDENCE":"High","PHONE":"(217) 318-5791","WEBSITE":"https://www.pacificaongreen.com/?switch_cls[id]=98334&utm_source=google%20-%20entrataseo&utm_medium=organic&utm_campaign=gmb&utm_content=websiteclick","NOTES":"Developer/energy project sources report 153 units."},"geometry":{"type":"Point","coordinates":[-88.2414421,40.1105399]}},{"type":"Feature","properties":{"PROPERTY_NAME":"Seven07","PROPERTY_TYPE":"Apartment Complex","SOURCE_ADDRESS":"707 S 4th St, Champaign, IL 61820, USA","VERIFIED_ADDRESS":"707 S 4th St, Champaign, IL 61820, USA","CITY":"Champaign","UNIT_COUNT":218,"COUNT_BASIS":"Apartments","SIZE_CLASS":"150–249 units/sites","COUNT_STATUS":"Verified","CONFIDENCE":"High","PHONE":"(217) 294-6260","WEBSITE":"https://liveseven07.com/?switch_cls[id]=65688&utm_source=a53_gbp_website&utm_medium=organic","NOTES":"Developer source reports 218 units and 548 bedrooms."},"geometry":{"type":"Point","coordinates":[-88.2341874,40.1096008]}},{"type":"Feature","properties":{"PROPERTY_NAME":"Westgate Apartments","PROPERTY_TYPE":"Apartment Complex","SOURCE_ADDRESS":"1600 W Bradley Ave, Champaign, IL 61821, USA","VERIFIED_ADDRESS":"1600 W Bradley Ave, Champaign, IL 61821, USA","CITY":"Champaign","UNIT_COUNT":380,"COUNT_BASIS":"Apartments","SIZE_CLASS":"250+ units/sites","COUNT_STATUS":"Verified","CONFIDENCE":"High","PHONE":"(217) 359-5330","WEBSITE":"http://www.westgateapts.net/","NOTES":"Field survey reports 380 units; city inventory is close at 376."},"geometry":{"type":"Point","coordinates":[-88.2747459,40.1281324]}},{"type":"Feature","properties":{"PROPERTY_NAME":"Octave","PROPERTY_TYPE":"Apartment Complex","SOURCE_ADDRESS":"210 S 4th St, Champaign, IL 61820, USA","VERIFIED_ADDRESS":"210 S 4th St, Champaign, IL 61820, USA","CITY":"Champaign","UNIT_COUNT":167,"COUNT_BASIS":"Apartments","SIZE_CLASS":"150–249 units/sites","COUNT_STATUS":"Verified","CONFIDENCE":"High","PHONE":"(217) 363-2888","WEBSITE":"https://liveatoctave.com/?utm_source=google&utm_medium=organic&utm_campaign=gbp-profile","NOTES":"Developer source reports 167 units and 538 beds."},"geometry":{"type":"Point","coordinates":[-88.2330639,40.1147027]}},{"type":"Feature","properties":{"PROPERTY_NAME":"Westbury Townhomes","PROPERTY_TYPE":"Apartment Complex","SOURCE_ADDRESS":"1801 W John St, Champaign, IL 61821, USA","VERIFIED_ADDRESS":"1801 W John St, Champaign, IL 61821, USA","CITY":"Champaign","UNIT_COUNT":45,"COUNT_BASIS":"Apartments","SIZE_CLASS":"Under 75 units/sites","COUNT_STATUS":"Verified","CONFIDENCE":"High","PHONE":"(217) 352-5509","WEBSITE":"https://www.jsjmanagement.com/","NOTES":"Field survey reports 45 Westbury Park townhome units."},"geometry":{"type":"Point","coordinates":[-88.2774872,40.1086575]}},{"type":"Feature","properties":{"PROPERTY_NAME":"New Century Estates","PROPERTY_TYPE":"Mobile Home / MHC","SOURCE_ADDRESS":"4809 Windsor Rd, Champaign, IL 61822, USA","VERIFIED_ADDRESS":"4809 Windsor Rd, Champaign, IL 61822, USA","CITY":"Champaign","UNIT_COUNT":160,"COUNT_BASIS":"Estimated homes","SIZE_CLASS":"Count needs verification","COUNT_STATUS":"Best available","CONFIDENCE":"Medium","PHONE":"(217) 661-0100","WEBSITE":null,"NOTES":"2023 local study estimates 160 manufactured homes; older directory lists 118 lots."},"geometry":{"type":"Point","coordinates":[-88.3246591,40.0841432]}},{"type":"Feature","properties":{"PROPERTY_NAME":"Edgebrook Estates","PROPERTY_TYPE":"Mobile Home / MHC","SOURCE_ADDRESS":"515 Edgebrook Dr, Champaign, IL 61820, USA","VERIFIED_ADDRESS":"515 Edgebrook Dr, Champaign, IL 61820, USA","CITY":"Champaign","UNIT_COUNT":47,"COUNT_BASIS":"Community sites","SIZE_CLASS":"Under 75 units/sites","COUNT_STATUS":"Verified","CONFIDENCE":"High","PHONE":"(217) 636-3974","WEBSITE":null,"NOTES":"Current manufactured-home directory reports 47 sites."},"geometry":{"type":"Point","coordinates":[-88.2510604,40.1318931]}},{"type":"Feature","properties":{"PROPERTY_NAME":"Woodland Acres Mobile Home Park","PROPERTY_TYPE":"Mobile Home / MHC","SOURCE_ADDRESS":"2200 E University Ave, Urbana, IL 61802, USA","VERIFIED_ADDRESS":"2200 E University Ave, Urbana, IL 61802","CITY":"Urbana","UNIT_COUNT":93,"COUNT_BASIS":"Licensed spaces","SIZE_CLASS":"75–149 units/sites","COUNT_STATUS":"Verified","CONFIDENCE":"High","PHONE":"(217) 384-4455","WEBSITE":"https://cairncommunities.com/community/woodland-acres/","NOTES":"Illinois licensed-space count."},"geometry":{"type":"Point","coordinates":[-88.1807769,40.1148089]}},{"type":"Feature","properties":{"PROPERTY_NAME":"Liberty Estate Commons","PROPERTY_TYPE":"Mobile Home / MHC","SOURCE_ADDRESS":"1776 Independence Ave Office, Urbana, IL 61802, USA","VERIFIED_ADDRESS":"1776 Independence Ave, Urbana, IL 61803","CITY":"Urbana","UNIT_COUNT":508,"COUNT_BASIS":"Licensed spaces","SIZE_CLASS":"250+ units/sites","COUNT_STATUS":"Verified","CONFIDENCE":"High","PHONE":"(217) 651-8642","WEBSITE":null,"NOTES":"Illinois licensed-space count."},"geometry":{"type":"Point","coordinates":[-88.18742,40.13345]}},{"type":"Feature","properties":{"PROPERTY_NAME":"Carriage Estates","PROPERTY_TYPE":"Mobile Home / MHC","SOURCE_ADDRESS":"58 Bridle Ln, Urbana, IL 61802, USA","VERIFIED_ADDRESS":"4 Bridal Lane, Urbana, IL 61802","CITY":"Urbana","UNIT_COUNT":57,"COUNT_BASIS":"Licensed spaces","SIZE_CLASS":"Under 75 units/sites","COUNT_STATUS":"Verified","CONFIDENCE":"High","PHONE":"(217) 394-4280","WEBSITE":null,"NOTES":"Illinois licensed-space count. Workbook address was corrected to the state directory address."},"geometry":{"type":"Point","coordinates":[-88.1804656,40.1179466]}},{"type":"Feature","properties":{"PROPERTY_NAME":"Country View Estates","PROPERTY_TYPE":"Mobile Home / MHC","SOURCE_ADDRESS":"1604 E Olympian Rd, Urbana, IL 61802, USA","VERIFIED_ADDRESS":"1604 E Olympian Rd, Urbana, IL 61802","CITY":"Urbana","UNIT_COUNT":42,"COUNT_BASIS":"Licensed spaces","SIZE_CLASS":"Under 75 units/sites","COUNT_STATUS":"Verified","CONFIDENCE":"High","PHONE":"(217) 643-2335","WEBSITE":null,"NOTES":"Illinois licensed-space count."},"geometry":{"type":"Point","coordinates":[-88.18632559999999,40.1581243]}},{"type":"Feature","properties":{"PROPERTY_NAME":"Edge of Urbana Mobile Home Community","PROPERTY_TYPE":"Mobile Home / MHC","SOURCE_ADDRESS":"2608 Brownfield Rd, Urbana, IL 61802, USA","VERIFIED_ADDRESS":"2608 Brownfield Rd, Urbana, IL 61802","CITY":"Urbana","UNIT_COUNT":26,"COUNT_BASIS":"Licensed spaces","SIZE_CLASS":"Under 75 units/sites","COUNT_STATUS":"Verified","CONFIDENCE":"High","PHONE":"(217) 893-8414","WEBSITE":null,"NOTES":"Illinois licensed-space count; directory name is Edge of Urbana, LLC."},"geometry":{"type":"Point","coordinates":[-88.1706388,40.1404554]}},{"type":"Feature","properties":{"PROPERTY_NAME":"Northwood Estates","PROPERTY_TYPE":"Mobile Home / MHC","SOURCE_ADDRESS":"1 Northwood Dr, Urbana, IL 61802, USA","VERIFIED_ADDRESS":"5 Northwood Dr, Urbana, IL 61801","CITY":"Urbana","UNIT_COUNT":113,"COUNT_BASIS":"Licensed spaces","SIZE_CLASS":"75–149 units/sites","COUNT_STATUS":"Verified","CONFIDENCE":"High","PHONE":"(217) 401-4732","WEBSITE":null,"NOTES":"Illinois licensed-space count."},"geometry":{"type":"Point","coordinates":[-88.190383,40.1396474]}},{"type":"Feature","properties":{"PROPERTY_NAME":"Ivanhoe Estates","PROPERTY_TYPE":"Mobile Home / MHC","SOURCE_ADDRESS":"26 Ivanhoe Dr, Urbana, IL 61802, USA","VERIFIED_ADDRESS":"26 Ivanhoe Dr, Urbana, IL 61802","CITY":"Urbana","UNIT_COUNT":329,"COUNT_BASIS":"Licensed spaces","SIZE_CLASS":"250+ units/sites","COUNT_STATUS":"Verified","CONFIDENCE":"High","PHONE":"(217) 636-4787","WEBSITE":null,"NOTES":"Illinois licensed-space count."},"geometry":{"type":"Point","coordinates":[-88.189416,40.129266]}},{"type":"Feature","properties":{"PROPERTY_NAME":"Surbana Estates","PROPERTY_TYPE":"Mobile Home / MHC","SOURCE_ADDRESS":"58 Bridle Ln, Urbana, IL 61802, USA","VERIFIED_ADDRESS":"121 S Dewey St, Urbana, IL 61801","CITY":"Urbana","UNIT_COUNT":94,"COUNT_BASIS":"Licensed spaces","SIZE_CLASS":"75–149 units/sites","COUNT_STATUS":"Verified","CONFIDENCE":"High","PHONE":"(217) 367-0521","WEBSITE":null,"NOTES":"Illinois licensed-space count. Workbook address duplicates Carriage Estates; the state directory gives 121 S Dewey St."},"geometry":{"type":"Point","coordinates":[-88.172578,40.1118119]}},{"type":"Feature","properties":{"PROPERTY_NAME":"Wood's Edge","PROPERTY_TYPE":"Mobile Home / MHC","SOURCE_ADDRESS":"202 Appletree Dr, Urbana, IL 61802, USA","VERIFIED_ADDRESS":"202 Apple Tree Dr, Urbana, IL 61803","CITY":"Urbana","UNIT_COUNT":173,"COUNT_BASIS":"Licensed spaces","SIZE_CLASS":"150–249 units/sites","COUNT_STATUS":"Verified","CONFIDENCE":"High","PHONE":"(217) 636-4130","WEBSITE":null,"NOTES":"Illinois licensed-space count."},"geometry":{"type":"Point","coordinates":[-88.2064943,40.141826]}},{"type":"Feature","properties":{"PROPERTY_NAME":"Chief Illini","PROPERTY_TYPE":"Mobile Home / MHC","SOURCE_ADDRESS":"63 1/2 Shemauger Trail, Urbana, IL 61802, USA","VERIFIED_ADDRESS":"63 1/2 Shemauger Trail, Urbana, IL 61802","CITY":"Urbana","UNIT_COUNT":64,"COUNT_BASIS":"Licensed spaces","SIZE_CLASS":"Under 75 units/sites","COUNT_STATUS":"Verified","CONFIDENCE":"High","PHONE":"(217) 697-4370","WEBSITE":null,"NOTES":"Illinois licensed-space count."},"geometry":{"type":"Point","coordinates":[-88.177188,40.119389]}},{"type":"Feature","properties":{"PROPERTY_NAME":"Loral MHP","PROPERTY_TYPE":"Mobile Home / MHC","SOURCE_ADDRESS":"13 loral trailer park, Urbana, IL 61802, USA","VERIFIED_ADDRESS":"31 Fern St, Urbana, IL 61801","CITY":"Urbana","UNIT_COUNT":34,"COUNT_BASIS":"Licensed spaces","SIZE_CLASS":"Under 75 units/sites","COUNT_STATUS":"Verified alias","CONFIDENCE":"High","PHONE":"(217) 718-4948","WEBSITE":null,"NOTES":"Current state directory lists this community as Spruce Commons MHC at 31 Fern St; older sources use Loral Park."},"geometry":{"type":"Point","coordinates":[-88.2056665,40.1390625]}},{"type":"Feature","properties":{"PROPERTY_NAME":"Smile Student Living","PROPERTY_TYPE":"Apartment Complex","SOURCE_ADDRESS":"615 S Wright St, Champaign, IL 61820, USA","VERIFIED_ADDRESS":"615 S Wright St, Champaign, IL 61820, USA","CITY":"Champaign","UNIT_COUNT":52,"COUNT_BASIS":"Apartments","SIZE_CLASS":"Count needs verification","COUNT_STATUS":"Best available","CONFIDENCE":"Medium","PHONE":"(217) 903-0440","WEBSITE":"https://www.smilestudentliving.com/","NOTES":"City apartment inventory records 52 units at 615 S Wright St."},"geometry":{"type":"Point","coordinates":[-88.2290655,40.1109984]}},{"type":"Feature","properties":{"PROPERTY_NAME":"Onyx Apartments","PROPERTY_TYPE":"Apartment Complex","SOURCE_ADDRESS":"1321 N Lincoln Ave, Urbana, IL 61801, USA","VERIFIED_ADDRESS":"1321 N Lincoln Ave, Urbana, IL 61801, USA","CITY":"Urbana","UNIT_COUNT":254,"COUNT_BASIS":"Apartments","SIZE_CLASS":"Count needs verification","COUNT_STATUS":"Best available","CONFIDENCE":"Medium","PHONE":"(224) 850-0124","WEBSITE":"https://www.onyxapartmentliving.com/","NOTES":"Current housing directories report 254 units. Formerly One South; older field survey reported 250."},"geometry":{"type":"Point","coordinates":[-88.2213208,40.1247305]}},{"type":"Feature","properties":{"PROPERTY_NAME":"Green Street Towers","PROPERTY_TYPE":"Apartment Complex","SOURCE_ADDRESS":"616 E Green St, Champaign, IL 61820, USA","VERIFIED_ADDRESS":"616 E Green St, Champaign, IL 61820, USA","CITY":"Champaign","UNIT_COUNT":81,"COUNT_BASIS":"Apartments","SIZE_CLASS":"Count needs verification","COUNT_STATUS":"Best available","CONFIDENCE":"Medium","PHONE":"(217) 359-6108","WEBSITE":"https://jsmliving.com/node/130567","NOTES":"Current housing directory reports 81 units."},"geometry":{"type":"Point","coordinates":[-88.2296109,40.1105931]}},{"type":"Feature","properties":{"PROPERTY_NAME":"Hessel on the Park Apartments","PROPERTY_TYPE":"Apartment Complex","SOURCE_ADDRESS":"1862 Valley Rd, Champaign, IL 61820, USA","VERIFIED_ADDRESS":"1862 Valley Rd, Champaign, IL 61820, USA","CITY":"Champaign","UNIT_COUNT":285,"COUNT_BASIS":"Apartments","SIZE_CLASS":"250+ units/sites","COUNT_STATUS":"Verified","CONFIDENCE":"High","PHONE":"(217) 687-1425","WEBSITE":"http://hesselparkapartments.com/","NOTES":"Current property directory and field survey both report 285 units."},"geometry":{"type":"Point","coordinates":[-88.24905419999999,40.0958219]}},{"type":"Feature","properties":{"PROPERTY_NAME":"The Linc Apartments","PROPERTY_TYPE":"Apartment Complex","SOURCE_ADDRESS":"1601 N Lincoln Ave, Urbana, IL 61801, USA","VERIFIED_ADDRESS":"1601 N Lincoln Ave, Urbana, IL 61801, USA","CITY":"Urbana","UNIT_COUNT":270,"COUNT_BASIS":"Apartments","SIZE_CLASS":"250+ units/sites","COUNT_STATUS":"Verified","CONFIDENCE":"High","PHONE":"(447) 208-1293","WEBSITE":"http://www.thelincapts.com/?utm_source=google&utm_medium=organic&utm_campaign=gmb","NOTES":"Current verified listing reports 270 units. Formerly One North; field survey agrees."},"geometry":{"type":"Point","coordinates":[-88.220178,40.1281638]}},{"type":"Feature","properties":{"PROPERTY_NAME":"Element on Main Apartments","PROPERTY_TYPE":"Apartment Complex","SOURCE_ADDRESS":"502 W Main St, Urbana, IL 61801, USA","VERIFIED_ADDRESS":"502 W Main St, Urbana, IL 61801, USA","CITY":"Urbana","UNIT_COUNT":118,"COUNT_BASIS":"Apartments","SIZE_CLASS":"75–149 units/sites","COUNT_STATUS":"Verified","CONFIDENCE":"High","PHONE":"(217) 384-5876","WEBSITE":"https://chooseelement.com/","NOTES":"Current property offering reports 118 units."},"geometry":{"type":"Point","coordinates":[-88.2132056,40.1139625]}},{"type":"Feature","properties":{"PROPERTY_NAME":"Town & Country Apartments","PROPERTY_TYPE":"Apartment Complex","SOURCE_ADDRESS":"1032 Kerr Ave, Urbana, IL 61802, USA","VERIFIED_ADDRESS":"1032 Kerr Ave, Urbana, IL 61802, USA","CITY":"Urbana","UNIT_COUNT":662,"COUNT_BASIS":"Apartments","SIZE_CLASS":"Count needs verification","COUNT_STATUS":"Best available","CONFIDENCE":"Medium","PHONE":"(217) 751-4865","WEBSITE":"http://www.liveattownandcountry.com/?switch_cls[id]=89718","NOTES":"2010 field survey reports 662 units; current listings confirm the same property but do not publish a total."},"geometry":{"type":"Point","coordinates":[-88.1972664,40.1222981]}},{"type":"Feature","properties":{"PROPERTY_NAME":"Capstone Quarters","PROPERTY_TYPE":"Apartment Complex","SOURCE_ADDRESS":"1901 N Lincoln Ave, Urbana, IL 61801, USA","VERIFIED_ADDRESS":"1901 N Lincoln Ave, Urbana, IL 61801, USA","CITY":"Urbana","UNIT_COUNT":208,"COUNT_BASIS":"Apartments","SIZE_CLASS":"Count needs verification","COUNT_STATUS":"Best available","CONFIDENCE":"Medium","PHONE":"(217) 367-7368","WEBSITE":"http://www.capstonequarters.com/","NOTES":"Community/developer source reports 208 units; other listings report 209 to 212."},"geometry":{"type":"Point","coordinates":[-88.220123,40.1293973]}},{"type":"Feature","properties":{"PROPERTY_NAME":"Stone Ridge Square Apartments","PROPERTY_TYPE":"Apartment Complex","SOURCE_ADDRESS":"1714 E Colorado Ave, Urbana, IL 61802, USA","VERIFIED_ADDRESS":"1714 E Colorado Ave, Urbana, IL 61802, USA","CITY":"Urbana","UNIT_COUNT":160,"COUNT_BASIS":"Apartments","SIZE_CLASS":"150–249 units/sites","COUNT_STATUS":"Verified","CONFIDENCE":"High","PHONE":"(217) 337-6567","WEBSITE":"https://www.m2regroup.com/properties/stone-ridge-square?utm_source=gbp&utm_medium=organic","NOTES":"Field survey reports 160 units."},"geometry":{"type":"Point","coordinates":[-88.1871458,40.0949085]}},{"type":"Feature","properties":{"PROPERTY_NAME":"Eastland Apartments","PROPERTY_TYPE":"Apartment Complex","SOURCE_ADDRESS":"1905 N Cunningham Ave, Urbana, IL 61802, USA","VERIFIED_ADDRESS":"1905 N Cunningham Ave, Urbana, IL 61802, USA","CITY":"Urbana","UNIT_COUNT":96,"COUNT_BASIS":"Apartments","SIZE_CLASS":"Count needs verification","COUNT_STATUS":"Best available","CONFIDENCE":"Medium","PHONE":"(217) 600-2029","WEBSITE":"https://eastlandapt.com/?utm_source=google&utm_medium=organic&utm_campaign=gmb-listing","NOTES":"Current student-housing directory reports 96 units."},"geometry":{"type":"Point","coordinates":[-88.1997281,40.1308078]}},{"type":"Feature","properties":{"PROPERTY_NAME":"The Whitney","PROPERTY_TYPE":"Apartment Complex","SOURCE_ADDRESS":"1601 E Florida Ave, Urbana, IL 61802, USA","VERIFIED_ADDRESS":"1601 E Florida Ave, Urbana, IL 61802, USA","CITY":"Urbana","UNIT_COUNT":168,"COUNT_BASIS":"Apartments","SIZE_CLASS":"150–249 units/sites","COUNT_STATUS":"Verified","CONFIDENCE":"High","PHONE":"(217) 337-3901","WEBSITE":"https://www.thewhitneyurbana.com/","NOTES":"Current verified property listing reports 168 units."},"geometry":{"type":"Point","coordinates":[-88.189141,40.0978536]}},{"type":"Feature","properties":{"PROPERTY_NAME":"Campus Circle Urbana","PROPERTY_TYPE":"Apartment Complex","SOURCE_ADDRESS":"1010 W University Ave, Urbana, IL 61801, USA","VERIFIED_ADDRESS":"1010 W University Ave, Urbana, IL 61801, USA","CITY":"Urbana","UNIT_COUNT":181,"COUNT_BASIS":"Apartments","SIZE_CLASS":"150–249 units/sites","COUNT_STATUS":"Verified","CONFIDENCE":"High","PHONE":"(217) 866-0892","WEBSITE":"https://www.campuscircleapartments.com/?switch_cls[id]=25368&utm_source=google%20-%20entratammb&utm_medium=organic&utm_campaign=gmb&utm_content=websiteclick","NOTES":"Architect and contractor sources report 181 units and 524 beds."},"geometry":{"type":"Point","coordinates":[-88.2219593,40.1165658]}},{"type":"Feature","properties":{"PROPERTY_NAME":"Fairlawn Village","PROPERTY_TYPE":"Apartment Complex","SOURCE_ADDRESS":"300-600 E Fairlawn Dr, Urbana, IL 61801, USA","VERIFIED_ADDRESS":"300-600 E Fairlawn Dr, Urbana, IL 61801, USA","CITY":"Urbana","UNIT_COUNT":134,"COUNT_BASIS":"Apartments","SIZE_CLASS":"Count needs verification","COUNT_STATUS":"Best available","CONFIDENCE":"Medium","PHONE":"(217) 239-4300","WEBSITE":"https://www.fairlawnre.com/","NOTES":"Current rental directory reports 134 units."},"geometry":{"type":"Point","coordinates":[-88.200928,40.104018]}},{"type":"Feature","properties":{"PROPERTY_NAME":"Prairie Green Apartment Homes","PROPERTY_TYPE":"Apartment Complex","SOURCE_ADDRESS":"2502 Prairie Green Dr, Urbana, IL 61802, USA","VERIFIED_ADDRESS":"2502 Prairie Green Dr, Urbana, IL 61802, USA","CITY":"Urbana","UNIT_COUNT":152,"COUNT_BASIS":"Apartments","SIZE_CLASS":"150–249 units/sites","COUNT_STATUS":"Verified","CONFIDENCE":"High","PHONE":"(217) 384-2900","WEBSITE":"https://www.pedcorliving.com/apartments/prairie-green-apartments","NOTES":"Field survey and current housing directory report 152 units."},"geometry":{"type":"Point","coordinates":[-88.1737855,40.1054688]}},{"type":"Feature","properties":{"PROPERTY_NAME":"Hillview Apartments","PROPERTY_TYPE":"Apartment Complex","SOURCE_ADDRESS":"1701 E Florida Ave, Urbana, IL 61802, USA","VERIFIED_ADDRESS":"1701 E Florida Ave, Urbana, IL 61802, USA","CITY":"Urbana","UNIT_COUNT":89,"COUNT_BASIS":"Apartments","SIZE_CLASS":"Count needs verification","COUNT_STATUS":"Best available","CONFIDENCE":"Medium","PHONE":"(217) 607-1613","WEBSITE":null,"NOTES":"Current rental directory reports 89 units."},"geometry":{"type":"Point","coordinates":[-88.1869916,40.0977235]}},{"type":"Feature","properties":{"PROPERTY_NAME":"901 Western","PROPERTY_TYPE":"Apartment Complex","SOURCE_ADDRESS":"901 W Western Ave, Urbana, IL 61801, USA","VERIFIED_ADDRESS":"901 W Western Ave, Urbana, IL 61801, USA","CITY":"Urbana","UNIT_COUNT":84,"COUNT_BASIS":"Apartments","SIZE_CLASS":"75–149 units/sites","COUNT_STATUS":"Verified","CONFIDENCE":"High","PHONE":"(217) 352-3182","WEBSITE":"http://901western.com/","NOTES":"Developer source reports 84 units and 192 beds."},"geometry":{"type":"Point","coordinates":[-88.21984289999999,40.1120894]}},{"type":"Feature","properties":{"PROPERTY_NAME":"Southwood Crossing","PROPERTY_TYPE":"Apartment Complex","SOURCE_ADDRESS":"1915 S Mattis Ave, Champaign, IL 61821, USA","VERIFIED_ADDRESS":"1915 S Mattis Ave, Champaign, IL 61821, USA","CITY":"Champaign","UNIT_COUNT":86,"COUNT_BASIS":"Apartments","SIZE_CLASS":"75–149 units/sites","COUNT_STATUS":"Verified","CONFIDENCE":"High","PHONE":"(217) 863-1516","WEBSITE":"https://www.southwoodcrossing.com/","NOTES":"Developer source reports 86 units."},"geometry":{"type":"Point","coordinates":[-88.2773665,40.0914649]}},{"type":"Feature","properties":{"PROPERTY_NAME":"Ashton Woods","PROPERTY_TYPE":"Apartment Complex","SOURCE_ADDRESS":"2221 S 1st St, Champaign, IL 61820, USA","VERIFIED_ADDRESS":"2221 S 1st St, Champaign, IL 61820, USA","CITY":"Champaign","UNIT_COUNT":156,"COUNT_BASIS":"Apartments","SIZE_CLASS":"150–249 units/sites","COUNT_STATUS":"Verified","CONFIDENCE":"High","PHONE":"(217) 333-5656","WEBSITE":"https://www.housing.illinois.edu/Living-Communities/Apartments/Ashton-Woods","NOTES":"University source reports 156 apartment units."},"geometry":{"type":"Point","coordinates":[-88.2387619,40.0853593]}},{"type":"Feature","properties":{"PROPERTY_NAME":"Lincolnshire West","PROPERTY_TYPE":"Apartment Complex","SOURCE_ADDRESS":"1515 W Kirby Ave, Champaign, IL 61821, USA","VERIFIED_ADDRESS":"1515 W Kirby Ave, Champaign, IL 61821, USA","CITY":"Champaign","UNIT_COUNT":50,"COUNT_BASIS":"Apartments","SIZE_CLASS":"Count needs verification","COUNT_STATUS":"Best available","CONFIDENCE":"Medium","PHONE":"(217) 262-6336","WEBSITE":"https://www.lincolnshirewest.com/","NOTES":"Current property listing identifies a 50-unit community."},"geometry":{"type":"Point","coordinates":[-88.2715519,40.0979012]}},{"type":"Feature","properties":{"PROPERTY_NAME":"75 Armory","PROPERTY_TYPE":"Apartment Complex","SOURCE_ADDRESS":"75 E Armory Ave, Champaign, IL 61820, USA","VERIFIED_ADDRESS":"75 E Armory Ave, Champaign, IL 61820, USA","CITY":"Champaign","UNIT_COUNT":72,"COUNT_BASIS":"Apartments","SIZE_CLASS":"Under 75 units/sites","COUNT_STATUS":"Verified","CONFIDENCE":"High","PHONE":"(217) 352-3182","WEBSITE":"http://www.75armory.com/","NOTES":"Developer/investment sources report 72 units and 194 beds."},"geometry":{"type":"Point","coordinates":[-88.23889229999999,40.1049731]}}]}